{
  "links" : {
    "next" : "https://api.nasa.gov/neo/rest/v1/feed?start_date=2003-11-23&end_date=2003-11-23&detailed=true&api_key=t0TVs3DtDT2H8Oy2Zy8m2eVrNsAVKAexjcZXUckd",
    "prev" : "https://api.nasa.gov/neo/rest/v1/feed?start_date=2003-11-21&end_date=2003-11-21&detailed=true&api_key=t0TVs3DtDT2H8Oy2Zy8m2eVrNsAVKAexjcZXUckd",
    "self" : "https://api.nasa.gov/neo/rest/v1/feed?start_date=2003-11-22&end_date=2003-11-22&detailed=true&api_key=t0TVs3DtDT2H8Oy2Zy8m2eVrNsAVKAexjcZXUckd"
  },
  "element_count" : 7,
  "near_earth_objects" : {
    "2003-11-22" : [ {
      "links" : {
        "self" : "https://api.nasa.gov/neo/rest/v1/neo/2152680?api_key=t0TVs3DtDT2H8Oy2Zy8m2eVrNsAVKAexjcZXUckd"
      },
      "neo_reference_id" : "2152680",
      "name" : "152680 (1998 KJ9)",
      "nasa_jpl_url" : "http://ssd.jpl.nasa.gov/sbdb.cgi?sstr=2152680",
      "absolute_magnitude_h" : 19.4,
      "estimated_diameter" : {
        "kilometers" : {
          "estimated_diameter_min" : 0.3503926411,
          "estimated_diameter_max" : 0.7835017643
        },
        "meters" : {
          "estimated_diameter_min" : 350.3926411083,
          "estimated_diameter_max" : 783.5017643338
        },
        "miles" : {
          "estimated_diameter_min" : 0.2177238258,
          "estimated_diameter_max" : 0.4868452748
        },
        "feet" : {
          "estimated_diameter_min" : 1149.5821926537,
          "estimated_diameter_max" : 2570.543928497
        }
      },
      "is_potentially_hazardous_asteroid" : true,
      "close_approach_data" : [ {
        "close_approach_date" : "2003-11-22",
        "epoch_date_close_approach" : 1069488000000,
        "relative_velocity" : {
          "kilometers_per_second" : "14.0191453085",
          "kilometers_per_hour" : "50468.9231107343",
          "miles_per_hour" : "31359.4261406671"
        },
        "miss_distance" : {
          "astronomical" : "0.3668870272",
          "lunar" : "142.7190551758",
          "kilometers" : "54885520",
          "miles" : "34104280"
        },
        "orbiting_body" : "Earth"
      } ],
      "orbital_data" : {
        "orbit_id" : "28",
        "orbit_determination_date" : "2017-04-06 09:27:14",
        "orbit_uncertainty" : "0",
        "minimum_orbit_intersection" : ".00539934",
        "jupiter_tisserand_invariant" : "4.390",
        "epoch_osculation" : "2458000.5",
        "eccentricity" : ".6397832053136242",
        "semi_major_axis" : "1.447801625473809",
        "inclination" : "10.93037626309689",
        "ascending_node_longitude" : "98.59539016901543",
        "orbital_period" : "636.3001369292782",
        "perihelion_distance" : ".5215224608699002",
        "perihelion_argument" : "260.0680784769342",
        "aphelion_distance" : "2.374080790077718",
        "perihelion_time" : "2458025.927911379797",
        "mean_anomaly" : "345.6136317353261",
        "mean_motion" : ".565770741048909",
        "equinox" : "J2000"
      }
    }, {
      "links" : {
        "self" : "https://api.nasa.gov/neo/rest/v1/neo/2436774?api_key=t0TVs3DtDT2H8Oy2Zy8m2eVrNsAVKAexjcZXUckd"
      },
      "neo_reference_id" : "2436774",
      "name" : "436774 (2012 KY3)",
      "nasa_jpl_url" : "http://ssd.jpl.nasa.gov/sbdb.cgi?sstr=2436774",
      "absolute_magnitude_h" : 18.4,
      "estimated_diameter" : {
        "kilometers" : {
          "estimated_diameter_min" : 0.5553349116,
          "estimated_diameter_max" : 1.2417666126
        },
        "meters" : {
          "estimated_diameter_min" : 555.334911581,
          "estimated_diameter_max" : 1241.766612574
        },
        "miles" : {
          "estimated_diameter_min" : 0.3450690093,
          "estimated_diameter_max" : 0.7715977618
        },
        "feet" : {
          "estimated_diameter_min" : 1821.9649913114,
          "estimated_diameter_max" : 4074.0375731972
        }
      },
      "is_potentially_hazardous_asteroid" : true,
      "close_approach_data" : [ {
        "close_approach_date" : "2003-11-22",
        "epoch_date_close_approach" : 1069488000000,
        "relative_velocity" : {
          "kilometers_per_second" : "13.3367256788",
          "kilometers_per_hour" : "48012.2124435065",
          "miles_per_hour" : "29832.9216707999"
        },
        "miss_distance" : {
          "astronomical" : "0.3664092319",
          "lunar" : "142.5331878662",
          "kilometers" : "54814044",
          "miles" : "34059868"
        },
        "orbiting_body" : "Earth"
      } ],
      "orbital_data" : {
        "orbit_id" : "40",
        "orbit_determination_date" : "2017-04-06 09:20:40",
        "orbit_uncertainty" : "1",
        "minimum_orbit_intersection" : ".022942",
        "jupiter_tisserand_invariant" : "5.015",
        "epoch_osculation" : "2458000.5",
        "eccentricity" : ".4862569274479347",
        "semi_major_axis" : "1.23207446521391",
        "inclination" : "21.39481944392061",
        "ascending_node_longitude" : "21.57823162240179",
        "orbital_period" : "499.5211281453764",
        "perihelion_distance" : ".6329697213719367",
        "perihelion_argument" : "87.25606909617623",
        "aphelion_distance" : "1.831179209055883",
        "perihelion_time" : "2457993.718289932916",
        "mean_anomaly" : "4.887512232395195",
        "mean_motion" : ".7206902365403624",
        "equinox" : "J2000"
      }
    }, {
      "links" : {
        "self" : "https://api.nasa.gov/neo/rest/v1/neo/3092339?api_key=t0TVs3DtDT2H8Oy2Zy8m2eVrNsAVKAexjcZXUckd"
      },
      "neo_reference_id" : "3092339",
      "name" : "(2001 SQ263)",
      "nasa_jpl_url" : "http://ssd.jpl.nasa.gov/sbdb.cgi?sstr=3092339",
      "absolute_magnitude_h" : 22.4,
      "estimated_diameter" : {
        "kilometers" : {
          "estimated_diameter_min" : 0.0880146521,
          "estimated_diameter_max" : 0.1968067451
        },
        "meters" : {
          "estimated_diameter_min" : 88.0146520901,
          "estimated_diameter_max" : 196.8067450894
        },
        "miles" : {
          "estimated_diameter_min" : 0.0546897524,
          "estimated_diameter_max" : 0.122290004
        },
        "feet" : {
          "estimated_diameter_min" : 288.7619911632,
          "estimated_diameter_max" : 645.6914415591
        }
      },
      "is_potentially_hazardous_asteroid" : false,
      "close_approach_data" : [ {
        "close_approach_date" : "2003-11-22",
        "epoch_date_close_approach" : 1069488000000,
        "relative_velocity" : {
          "kilometers_per_second" : "12.1343430078",
          "kilometers_per_hour" : "43683.634827986",
          "miles_per_hour" : "27143.3118740894"
        },
        "miss_distance" : {
          "astronomical" : "0.4222451101",
          "lunar" : "164.2533569336",
          "kilometers" : "63166972",
          "miles" : "39250136"
        },
        "orbiting_body" : "Earth"
      } ],
      "orbital_data" : {
        "orbit_id" : "21",
        "orbit_determination_date" : "2017-04-06 09:16:06",
        "orbit_uncertainty" : "0",
        "minimum_orbit_intersection" : ".032103",
        "jupiter_tisserand_invariant" : "6.234",
        "epoch_osculation" : "2458000.5",
        "eccentricity" : ".4914158422799518",
        "semi_major_axis" : ".9474258062857155",
        "inclination" : "3.940930724661483",
        "ascending_node_longitude" : "327.1342250964502",
        "orbital_period" : "336.8342475542343",
        "perihelion_distance" : ".4818457556920582",
        "perihelion_argument" : "262.5065746486796",
        "aphelion_distance" : "1.413005856879373",
        "perihelion_time" : "2457833.745346728789",
        "mean_anomaly" : "178.2231931982213",
        "mean_motion" : "1.068774931925637",
        "equinox" : "J2000"
      }
    } ]
  }
}